NORAD_CAT_ID,OBJECT_NAME,OBJECT_TYPE,EPOCH,MEAN_MOTION,ECCENTRICITY,INCLINATION,RA_OF_ASC_NODE,ARG_OF_PERICENTER,MEAN_ANOMALY,BSTAR,MEAN_MOTION_DOT,MEAN_MOTION_DDOT,TLE_LINE0,TLE_LINE1,TLE_LINE2,SEMIMAJOR_AXIS,PERIOD,APOGEE,PERIGEE,DECAYED
54800.0,STARLINK-5428,PAYLOAD,2024-05-13 10:47:21,15.088298,0.0001564,53.2159,140.2708,106.0903,254.0261,0.00039707,6.035e-05,0.0,0 STARLINK-5428,1 54800U 22175AU  24134.44954886  .00006035  00000-0  39707-3 0  9999,2 54800  53.2159 140.2708 0001564 106.0903 254.0261 15.08829800 79637,6917.912,95.438,540.859,538.695,0.0
54800.0,STARLINK-5428,PAYLOAD,2024-05-13 17:08:53,15.08831941,0.0001574,53.2158,139.082,106.2826,253.834,0.00046587,7.132e-05,0.0,0 STARLINK-5428,1 54800U 22175AU  24134.71451092  .00007132  00000-0  46587-3 0  9993,2 54800  53.2158 139.0820 0001574 106.2826 253.8340 15.08831941 79672,6917.905,95.438,540.859,538.681,0.0
54800.0,STARLINK-5428,PAYLOAD,2024-05-14 09:02:45,15.0883267,0.0001377,53.2154,136.1078,94.0698,266.0452,0.00083729,0.0001306,0.0,0 STARLINK-5428,1 54800U 22175AU  24135.37691347  .00013060  00000-0  83729-3 0  9991,2 54800  53.2154 136.1078 0001377  94.0698 266.0452 15.08832670 79774,6917.903,95.438,540.72,538.815,0.0
54800.0,STARLINK-5428,PAYLOAD,2024-05-14 16:59:40,15.08843763,0.0001361,53.2157,134.6208,93.6417,266.473,0.00076182,0.00011858,0.0,0 STARLINK-5428,1 54800U 22175AU  24135.70810893  .00011858  00000-0  76182-3 0  9995,2 54800  53.2157 134.6208 0001361  93.6417 266.4730 15.08843763 77666,6917.869,95.437,540.675,538.792,0.0
54800.0,STARLINK-5428,PAYLOAD,2024-05-15 05:42:44,15.08870481,0.0001346,53.2153,132.2416,96.3013,263.8132,0.00034978,5.288e-05,0.0,0 STARLINK-5428,1 54800U 22175AU  24136.23800952  .00005288  00000-0  34978-3 0  9996,2 54800  53.2153 132.2416 0001346  96.3013 263.8132 15.08870481 77745,6917.787,95.436,540.583,538.721,0.0
54800.0,STARLINK-5428,PAYLOAD,2024-05-15 08:53:29,15.08876767,0.0001362,53.2153,131.6469,96.2835,263.8313,0.00046886,7.189e-05,0.0,0 STARLINK-5428,1 54800U 22175AU  24136.37048582  .00007189  00000-0  46886-3 0  9997,2 54800  53.2153 131.6469 0001362  96.2835 263.8313 15.08876767 79921,6917.768,95.435,540.575,538.691,0.0
54800.0,STARLINK-5428,PAYLOAD,2024-05-16 05:33:30,15.0885682,0.0001482,53.2162,127.7792,95.0593,265.0568,4.2667e-05,3.91e-06,0.0,0 STARLINK-5428,1 54800U 22175AU  24137.23160427  .00000391  00000-0  42667-4 0  9998,2 54800  53.2162 127.7792 0001482  95.0593 265.0568 15.08856820 77895,6917.829,95.436,540.719,538.669,0.0
54800.0,STARLINK-5428,PAYLOAD,2024-05-16 07:08:53,15.08858029,0.0001452,53.2158,127.4831,93.3422,266.7737,3.4311e-05,2.58e-06,0.0,0 STARLINK-5428,1 54800U 22175AU  24137.29784332  .00000258  00000-0  34311-4 0  9990,2 54800  53.2158 127.4831 0001452  93.3422 266.7737 15.08858029 80062,6917.825,95.436,540.695,538.686,0.0
54800.0,STARLINK-5428,PAYLOAD,2024-05-16 23:02:44,15.08855443,0.0001506,53.2161,124.51,91.6205,268.496,-2.4378e-05,-6.76e-06,0.0,0 STARLINK-5428,1 54800U 22175AU  24137.96023882 -.00000676  00000-0 -24378-4 0  9998,2 54800  53.2161 124.5100 0001506  91.6205 268.4960 15.08855443 80168,6917.833,95.437,540.74,538.656,0.0
54800.0,STARLINK-5428,PAYLOAD,2024-05-17 08:35:02,15.08859608,0.0001446,53.2154,122.7242,101.1514,258.964,5.9492e-05,6.59e-06,0.0,0 STARLINK-5428,1 54800U 22175AU  24138.35767250  .00000659  00000-0  59492-4 0  9990,2 54800  53.2154 122.7242 0001446 101.1514 258.9640 15.08859608 78062,6917.82,95.436,540.686,538.685,0.0
54800.0,STARLINK-5428,PAYLOAD,2024-05-17 16:31:59,15.08838776,0.0001859,53.2164,121.2369,93.4986,266.6218,-6.2177e-05,-1.278e-05,0.0,0 STARLINK-5428,1 54800U 22175AU  24138.68888438 -.00001278  00000-0 -62177-4 0  9992,2 54800  53.2164 121.2369 0001859  93.4986 266.6218 15.08838776 78117,6917.884,95.438,541.035,538.463,0.0
54800.0,STARLINK-5428,PAYLOAD,2024-05-17 22:53:32,15.0883834,0.0001675,53.2156,120.0489,87.4314,272.687,-4.4599e-06,-3.59e-06,0.0,0 STARLINK-5428,1 54800U 22175AU  24138.95384413 -.00000359  00000-0 -44599-5 0  9994,2 54800  53.2156 120.0489 0001675  87.4314 272.6870 15.08838340 80315,6917.885,95.438,540.909,538.592,0.0
54800.0,STARLINK-5428,PAYLOAD,2024-05-18 08:25:50,15.08841675,0.0001596,53.2158,118.2639,93.2588,266.8587,5.9162e-05,6.54e-06,0.0,0 STARLINK-5428,1 54800U 22175AU  24139.35128266  .00000654  00000-0  59162-4 0  9998,2 54800  53.2158 118.2639 0001596  93.2588 266.8587 15.08841675 80374,6917.875,95.437,540.844,538.636,0.0
54800.0,STARLINK-5428,PAYLOAD,2024-05-19 05:05:51,15.08845655,0.0001559,53.2145,114.3971,94.4613,265.6557,0.00012838,1.756e-05,0.0,0 STARLINK-5428,1 54800U 22175AU  24140.21240086  .00001756  00000-0  12838-3 0  9992,2 54800  53.2145 114.3971 0001559  94.4613 265.6557 15.08845655 78347,6917.863,95.437,540.807,538.65,0.0
54800.0,STARLINK-5428,PAYLOAD,2024-05-20 03:21:15,15.08838276,0.0001458,53.2155,110.2342,106.1545,253.9607,0.00014138,1.963e-05,0.0,0 STARLINK-5428,1 54800U 22175AU  24141.13976742  .00001963  00000-0  14138-3 0  9994,2 54800  53.2155 110.2342 0001458 106.1545 253.9607 15.08838276 78480,6917.886,95.438,540.759,538.742,0.0
54800.0,STARLINK-5428,PAYLOAD,2024-05-21 04:47:26,15.08834804,0.0001228,53.2152,105.4774,103.2811,256.8318,3.4186e-06,-2.33e-06,0.0,0 STARLINK-5428,1 54800U 22175AU  24142.19961341 -.00000233  00000-0  34186-5 0  9997,2 54800  53.2152 105.4774 0001228 103.2811 256.8318 15.08834804 78643,6917.896,95.438,540.611,538.912,0.0
54800.0,STARLINK-5428,PAYLOAD,2024-05-21 06:22:49,15.0883655,0.0001181,53.2154,105.18,99.2305,260.8821,3.1137e-05,2.08e-06,0.0,0 STARLINK-5428,1 54800U 22175AU  24142.26585288  .00000208  00000-0  31137-4 0  9990,2 54800  53.2154 105.1800 0001181  99.2305 260.8821 15.08836550 80818,6917.891,95.438,540.573,538.939,0.0
54800.0,STARLINK-5428,PAYLOAD,2024-05-22 06:13:36,15.08849912,0.0001264,53.2166,100.7233,105.9561,254.157,0.00030262,4.533e-05,0.0,0 STARLINK-5428,1 54800U 22175AU  24143.25944895  .00004533  00000-0  30262-3 0  9995,2 54800  53.2166 100.7233 0001264 105.9561 254.1570 15.08849912 78802,6917.85,95.437,540.59,538.841,0.0
54800.0,STARLINK-5428,PAYLOAD,2024-05-23 02:53:37,15.08844972,0.0001479,53.2164,96.8572,105.3752,254.7403,0.00015643,2.203e-05,0.0,0 STARLINK-5428,1 54800U 22175AU  24144.12057218  .00002203  00000-0  15643-3 0  9994,2 54800  53.2164  96.8572 0001479 105.3752 254.7403 15.08844972 78931,6917.865,95.437,540.753,538.707,0.0
54800.0,STARLINK-5428,PAYLOAD,2024-05-23 06:04:23,15.08847711,0.0001467,53.2171,96.257,92.5519,267.5642,0.00018967,2.733e-05,0.0,0 STARLINK-5428,1 54800U 22175AU  24144.25305086  .00002733  00000-0  18967-3 0  9997,2 54800  53.2171  96.2570 0001467  92.5519 267.5642 15.08847711 81111,6917.857,95.437,540.737,538.707,0.0
54800.0,STARLINK-5428,PAYLOAD,2024-05-24 05:55:10,15.08847926,0.0001676,53.2187,91.7902,105.9729,254.1448,4.6802e-05,4.57e-06,0.0,0 STARLINK-5428,1 54800U 22175AU  24145.24664795  .00000457  00000-0  46802-4 0  9993,2 54800  53.2187  91.7902 0001676 105.9729 254.1448 15.08847926 79101,6917.856,95.437,540.881,538.562,0.0
54800.0,STARLINK-5428,PAYLOAD,2024-05-24 20:13:39,15.08835204,0.0001487,53.2188,89.1236,107.5074,252.6081,8.1876e-06,-1.58e-06,0.0,0 STARLINK-5428,1 54800U 22175AU  24145.84281668 -.00000158  00000-0  81876-5 0  9993,2 54800  53.2188  89.1236 0001487 107.5074 252.6081 15.08835204 79195,6917.895,95.438,540.789,538.731,0.0
54800.0,STARLINK-5428,PAYLOAD,2024-05-25 05:45:57,15.08842772,0.0001648,53.2166,87.3388,98.2638,261.8541,4.6431e-05,4.51e-06,0.0,0 STARLINK-5428,1 54800U 22175AU  24146.24025267  .00000451  00000-0  46431-4 0  9991,2 54800  53.2166  87.3388 0001648  98.2638 261.8541 15.08842772 79258,6917.872,95.437,540.877,538.597,0.0
54800.0,STARLINK-5428,PAYLOAD,2024-05-25 13:42:53,15.088374,0.0001742,53.2151,85.8527,92.5881,267.531,7.2352e-05,8.64e-06,0.0,0 STARLINK-5428,1 54800U 22175AU  24146.57145800  .00000864  00000-0  72352-4 0  9992,2 54800  53.2151  85.8527 0001742  92.5881 267.5310 15.08837400 81467,6917.888,95.438,540.958,538.548,0.0
54800.0,STARLINK-5428,PAYLOAD,2024-05-26 02:25:59,15.08841796,0.0001434,53.2177,83.4719,95.6133,264.5022,-1.6119e-05,-5.44e-06,0.0,0 STARLINK-5428,1 54800U 22175AU  24147.10137821 -.00000544  00000-0 -16119-4 0  9992,2 54800  53.2177  83.4719 0001434  95.6133 264.5022 15.08841796 81543,6917.875,95.437,540.732,538.748,0.0
54800.0,STARLINK-5428,PAYLOAD,2024-05-26 23:05:59,15.08840637,0.0001315,53.2184,79.6081,98.0572,262.0569,8.4137e-05,1.051e-05,0.0,0 STARLINK-5428,1 54800U 22175AU  24147.96249716  .00001051  00000-0  84137-4 0  9990,2 54800  53.2184  79.6081 0001315  98.0572 262.0569 15.08840637 81678,6917.878,95.438,540.653,538.834,0.0
54800.0,STARLINK-5428,PAYLOAD,2024-05-27 02:16:57,15.08683753,0.0001375,53.2178,79.0249,26.7547,333.3515,-0.0011448,-0.00018383,0.0,0 STARLINK-5428,1 54800U 22175AU  24148.09510505 -.00018383  00000-0 -11448-2 0  9993,2 54800  53.2178  79.0249 0001375  26.7547 333.3515 15.08683753 79536,6918.358,95.447,541.174,539.272,0.0
54800.0,STARLINK-5428,PAYLOAD,2024-05-27 11:49:03,15.08852057,0.0001276,53.2179,77.2302,97.7215,262.3922,0.00013142,1.805e-05,0.0,0 STARLINK-5428,1 54800U 22175AU  24148.49240643  .00001805  00000-0  13142-3 0  9993,2 54800  53.2179  77.2302 0001276  97.7215 262.3922 15.08852057 79591,6917.844,95.437,540.591,538.826,0.0
54800.0,STARLINK-5428,PAYLOAD,2024-05-27 19:46:01,15.08832613,0.0001371,53.2191,75.746,84.5067,275.6081,3.7692e-05,3.12e-06,0.0,0 STARLINK-5428,1 54800U 22175AU  24148.82362562  .00000312  00000-0  37692-4 0  9994,2 54800  53.2191  75.7460 0001371  84.5067 275.6081 15.08832613 79643,6917.903,95.438,540.716,538.82,0.0
54800.0,STARLINK-5428,PAYLOAD,2024-05-27 22:56:47,15.08834708,0.0001315,53.2189,75.1513,89.5311,270.5832,6.8231e-05,7.98e-06,0.0,0 STARLINK-5428,1 54800U 22175AU  24148.95610379  .00000798  00000-0  68231-4 0  9991,2 54800  53.2189  75.1513 0001315  89.5311 270.5832 15.08834708 81826,6917.897,95.438,540.671,538.852,0.0
